{
  "norad_id": 64732,
  "name": "STARLINK-34596",
  "history": [
    {
      "epoch": "2026-04-14T04:08:08.130048Z",
      "apogee_km": 476.42653379409785,
      "perigee_km": 474.1513334526535,
      "latitude_deg": 3.0763316926512835e-05,
      "longitude_deg": 111.89289160882342,
      "height_km": 476.31897340325025,
      "semi_major_axis_km": 6853.425933623375,
      "eccentricity": 0.00016599,
      "inclination_deg": 53.1572,
      "raan_deg": 16.2793,
      "arg_perigee_deg": 96.7044,
      "mean_anomaly_deg": 263.4146,
      "mean_motion_rev_day": 15.30175262
    },
    {
      "epoch": "2026-04-14T21:22:41.834208Z",
      "apogee_km": 475.94905132138774,
      "perigee_km": 474.18366613617945,
      "latitude_deg": -3.41619595877758e-05,
      "longitude_deg": -150.79202202899842,
      "height_km": 476.28344780597297,
      "semi_major_axis_km": 6853.203358728783,
      "eccentricity": 0.0001288,
      "inclination_deg": 53.1587,
      "raan_deg": 12.943,
      "arg_perigee_deg": 111.1887,
      "mean_anomaly_deg": 248.9251,
      "mean_motion_rev_day": 15.30249807
    },
    {
      "epoch": "2026-04-16T06:17:48.259968Z",
      "apogee_km": 476.0045998013693,
      "perigee_km": 474.38447222625564,
      "latitude_deg": -5.5792972518885176e-05,
      "longitude_deg": 67.70917774963465,
      "height_km": 476.1616680054124,
      "semi_major_axis_km": 6853.331536013812,
      "eccentricity": 0.0001182,
      "inclination_deg": 53.1597,
      "raan_deg": 6.5729,
      "arg_perigee_deg": 94.883,
      "mean_anomaly_deg": 265.2305,
      "mean_motion_rev_day": 15.30206877
    },
    {
      "epoch": "2026-04-17T23:03:11.688480Z",
      "apogee_km": 476.347858628058,
      "perigee_km": 474.0729584892606,
      "latitude_deg": -6.414738977167955e-05,
      "longitude_deg": 166.7995449297436,
      "height_km": 476.2794472980069,
      "semi_major_axis_km": 6853.347408558659,
      "eccentricity": 0.00016597,
      "inclination_deg": 53.161,
      "raan_deg": 358.6847,
      "arg_perigee_deg": 98.6651,
      "mean_anomaly_deg": 261.4537,
      "mean_motion_rev_day": 15.30201561
    },
    {
      "epoch": "2026-04-18T02:11:17.780064Z",
      "apogee_km": 476.05302446542373,
      "perigee_km": 474.28500857928066,
      "latitude_deg": 3.802216338121936e-05,
      "longitude_deg": 119.04028857343715,
      "height_km": 476.08050863179074,
      "semi_major_axis_km": 6853.3060165223515,
      "eccentricity": 0.00012899,
      "inclination_deg": 53.1602,
      "raan_deg": 358.0795,
      "arg_perigee_deg": 90.87,
      "mean_anomaly_deg": 269.2449,
      "mean_motion_rev_day": 15.30215424
    },
    {
      "epoch": "2026-04-19T09:32:21.967008Z",
      "apogee_km": 476.1854683501497,
      "perigee_km": 474.1355100051869,
      "latitude_deg": 4.196917871901217e-05,
      "longitude_deg": 1.4167988886702838,
      "height_km": 475.82256181235493,
      "semi_major_axis_km": 6853.297489177668,
      "eccentricity": 0.00014956,
      "inclination_deg": 53.1628,
      "raan_deg": 352.011,
      "arg_perigee_deg": 76.6853,
      "mean_anomaly_deg": 283.4315,
      "mean_motion_rev_day": 15.3021828
    },
    {
      "epoch": "2026-04-20T09:03:08.868672Z",
      "apogee_km": 476.5887808818288,
      "perigee_km": 474.0841104763713,
      "latitude_deg": 1.041755099714483e-05,
      "longitude_deg": 3.205404435418291,
      "height_km": 476.09990219470563,
      "semi_major_axis_km": 6853.4734456791,
      "eccentricity": 0.00018273,
      "inclination_deg": 53.1609,
      "raan_deg": 347.4607,
      "arg_perigee_deg": 83.8608,
      "mean_anomaly_deg": 276.2601,
      "mean_motion_rev_day": 15.3015935
    },
    {
      "epoch": "2026-04-21T19:32:20.124384Z",
      "apogee_km": 476.0032318043777,
      "perigee_km": 474.42421979715436,
      "latitude_deg": -2.5166577772387563e-05,
      "longitude_deg": -162.18413296684204,
      "height_km": 476.1770316715311,
      "semi_major_axis_km": 6853.350725800766,
      "eccentricity": 0.0001152,
      "inclination_deg": 53.161,
      "raan_deg": 340.7844,
      "arg_perigee_deg": 94.7192,
      "mean_anomaly_deg": 265.394,
      "mean_motion_rev_day": 15.3020045
    },
    {
      "epoch": "2026-04-21T22:40:26.408640Z",
      "apogee_km": 475.867426896104,
      "perigee_km": 474.5950305507595,
      "latitude_deg": -3.439333183507835e-05,
      "longitude_deg": 150.05462229790834,
      "height_km": 476.27211927411645,
      "semi_major_axis_km": 6853.3682287234315,
      "eccentricity": 9.283e-05,
      "inclination_deg": 53.1596,
      "raan_deg": 340.1781,
      "arg_perigee_deg": 102.931,
      "mean_anomaly_deg": 257.1794,
      "mean_motion_rev_day": 15.30194588
    }
  ]
}